[{"OBJECT_NAME":"STARLINK-3338","OBJECT_ID":"2022-001K","EPOCH":"2026-03-09T13:42:29.975328","MEAN_MOTION":15.08839183,"ECCENTRICITY":0.0001102,"INCLINATION":53.2163,"RA_OF_ASC_NODE":159.7572,"ARG_OF_PERICENTER":100.0964,"MEAN_ANOMALY":260.0153,"EPHEMERIS_TYPE":0,"CLASSIFICATION_TYPE":"U","NORAD_CAT_ID":50812,"ELEMENT_SET_NO":999,"REV_AT_EPOCH":23052,"BSTAR":-3.5802e-5,"MEAN_MOTION_DOT":-8.58e-6,"MEAN_MOTION_DDOT":0},{"OBJECT_NAME":"YUNYAO-1 45","OBJECT_ID":"2025-059C","EPOCH":"2026-03-09T23:25:14.115648","MEAN_MOTION":15.10348188,"ECCENTRICITY":0.00171316,"INCLINATION":97.6099,"RA_OF_ASC_NODE":251.0366,"ARG_OF_PERICENTER":134.7318,"MEAN_ANOMALY":225.5309,"EPHEMERIS_TYPE":0,"CLASSIFICATION_TYPE":"U","NORAD_CAT_ID":63346,"ELEMENT_SET_NO":999,"REV_AT_EPOCH":5332,"BSTAR":0.00033512738,"MEAN_MOTION_DOT":5.451e-5,"MEAN_MOTION_DDOT":0}]
